COMMENT,ORIGINATOR,NORAD_CAT_ID,OBJECT_NAME,OBJECT_TYPE,CLASSIFICATION_TYPE,INTLDES,EPOCH,EPOCH_MICROSECONDS,MEAN_MOTION,ECCENTRICITY,INCLINATION,RA_OF_ASC_NODE,ARG_OF_PERICENTER,MEAN_ANOMALY,EPHEMERIS_TYPE,ELEMENT_SET_NO,REV_AT_EPOCH,BSTAR,MEAN_MOTION_DOT,MEAN_MOTION_DDOT,FILE,TLE_LINE0,TLE_LINE1,TLE_LINE2,OBJECT_ID,OBJECT_NUMBER,SEMIMAJOR_AXIS,PERIOD,APOGEE,PERIGEE,DECAYED
GENERATED VIA SPACETRACK.ORG API,18 SPCS,41384,IRNSS 1F,PAYLOAD,U,16015A,2024-01-28 22:01:51,291264,1.00272039,0.0021515,3.2487,123.3009,186.1934,180.9911,0,999,2894,0,0.00000165,0,4173840,0 IRNSS 1F,1 41384U 16015A   24028.91795476  .00000165  00000-0  00000-0 0  9999,2 41384   3.2487 123.3009 0021515 186.1934 180.9911  1.00272039 28946,2016-015A,41384,42164.661,1436.093,35877.243,35695.808,0
GENERATED VIA SPACETRACK.ORG API,18 SPCS,29055,ASTRA 1KR,PAYLOAD,U,06012A,2024-01-28 21:57:58,209120,1.00274431,0.0004363,0.0771,274.3053,356.8221,205.1984,0,999,3699,0,0.00000128,0,4173840,0 ASTRA 1KR,1 29055U 06012A   24028.91525705  .00000128  00000-0  00000-0 0  9991,2 29055   0.0771 274.3053 0004363 356.8221 205.1984  1.00274431 36993,2006-012A,29055,42163.990,1436.059,35804.251,35767.459,0
GENERATED VIA SPACETRACK.ORG API,18 SPCS,33436,ASTRA 1M,PAYLOAD,U,08057A,2024-01-28 21:57:58,209120,1.00272874,0.0000951,0.0366,86.2587,163.2787,226.7564,0,999,3701,0,0.00000128,0,4173840,0 ASTRA 1M,1 33436U 08057A   24028.91525705  .00000128  00000-0  00000-0 0  9990,2 33436   0.0366  86.2587 0000951 163.2787 226.7564  1.00272874 37015,2008-057A,33436,42164.427,1436.081,35790.302,35782.282,0
GENERATED VIA SPACETRACK.ORG API,18 SPCS,33373,NIMIQ 4,PAYLOAD,U,08044A,2024-01-28 21:29:01,375584,1.00272003,0.0002379,0.0114,41.6029,274.0686,52.2151,0,999,5625,0,-0.00000212,0,4173840,0 NIMIQ 4,1 33373U 08044A   24028.89515481 -.00000212  00000-0  00000-0 0  9998,2 33373   0.0114  41.6029 0002379 274.0686  52.2151  1.00272003 56252,2008-044A,33373,42164.671,1436.094,35796.567,35776.505,0
GENERATED VIA SPACETRACK.ORG API,18 SPCS,41937,SBIRS GEO 4 (USA 273),PAYLOAD,U,17004A,2024-01-28 21:24:45,737856,1.0027196,0.0002591,1.4773,346.9605,318.4398,46.6123,0,999,2587,0,-0.00000134,0,4173840,0 SBIRS GEO 4 (USA 273),1 41937U 17004A   24028.89219604 -.00000134  00000-0  00000-0 0  9990,2 41937   1.4773 346.9605 0002591 318.4398  46.6123  1.00271960 25874,2017-004A,41937,42164.683,1436.094,35797.473,35775.623,0
GENERATED VIA SPACETRACK.ORG API,18 SPCS,29162,EUTE 113 WEST A(SATMEX 6,PAYLOAD,U,06020A,2024-01-28 21:20:07,542816,1.00271029,0.0002981,0.1173,105.1721,206.5085,22.9631,0,999,6474,0,-0.00000029,0,4173840,0 EUTE 113 WEST A(SATMEX 6,1 29162U 06020A   24028.88897619 -.00000029  00000-0  00000-0 0  9992,2 29162   0.1173 105.1721 0002981 206.5085  22.9631  1.00271029 64743,2006-020A,29162,42164.944,1436.108,35799.378,35774.240,0
GENERATED VIA SPACETRACK.ORG API,18 SPCS,44307,YAMAL 601,PAYLOAD,U,19031A,2024-01-28 20:23:29,61024,1.002714,0.0002607,0.0138,124.8313,177.433,180.18,0,999,1719,0,0.00000128,0,4173840,0 YAMAL 601,1 44307U 19031A   24028.84964191  .00000128  00000-0  00000-0 0  9991,2 44307   0.0138 124.8313 0002607 177.4330 180.1800  1.00271400 17195,2019-031A,44307,42164.840,1436.102,35797.697,35775.713,0
GENERATED VIA SPACETRACK.ORG API,18 SPCS,8832,TITAN 3C TRANSTAGE DEB,DEBRIS,U,76023J,2024-01-28 20:04:41,247264,0.98261534,0.0137269,20.0244,53.7252,72.9046,287.3495,0,999,10904,0,-0.00000283,0,4173840,0 TITAN 3C TRANSTAGE DEB,1 08832U 76023J   24028.83658851 -.00000283  00000-0  00000-0 0  9993,2 08832  20.0244  53.7252 0137269  72.9046 287.3495  0.98261534109045,1976-023J,8832,42737.864,1465.477,36946.388,35773.071,0
GENERATED VIA SPACETRACK.ORG API,18 SPCS,25967,UFO 10 (USA 146),PAYLOAD,U,99063A,2024-01-28 20:02:48,465888,1.00274811,0.0004979,9.3711,31.2368,250.2067,124.011,0,999,8862,0,-0.0000018,0,4173840,0 UFO 10 (USA 146),1 25967U 99063A   24028.83528317 -.00000180  00000-0  00000-0 0  9999,2 25967   9.3711  31.2368 0004979 250.2067 124.0110  1.00274811 88623,1999-063A,25967,42163.884,1436.054,35806.742,35764.755,0
GENERATED VIA SPACETRACK.ORG API,18 SPCS,25967,UFO 10 (USA 146),PAYLOAD,U,99063A,2024-01-28 20:02:48,465888,1.00274811,0.0004979,9.3711,31.2368,250.2067,124.011,0,999,8861,0,-0.0000018,0,4173990,0 UFO 10 (USA 146),1 25967U 99063A   24028.83528317 -.00000180  00000-0  00000+0 0  9998,2 25967   9.3711  31.2368 0004979 250.2067 124.0110  1.00274811 88612,1999-063A,25967,42163.884,1436.054,35806.742,35764.755,0
GENERATED VIA SPACETRACK.ORG API,18 SPCS,41469,IRNSS 1G,PAYLOAD,U,16027A,2024-01-28 19:03:24,571296,1.00272283,0.0004092,3.1319,124.6843,273.4386,144.8346,0,999,2845,0,-0.00000329,0,4173840,0 IRNSS 1G,1 41469U 16027A   24028.79403439 -.00000329  00000-0  00000-0 0  9990,2 41469   3.1319 124.6843 0004092 273.4386 144.8346  1.00272283 28453,2016-027A,41469,42164.592,1436.090,35803.711,35769.204,0
GENERATED VIA SPACETRACK.ORG API,18 SPCS,20253,FLTSATCOM 8 (USA 46),PAYLOAD,U,89077A,2024-01-28 19:02:16,901952,1.00268198,0.000626,12.6774,356.4205,318.8423,223.6371,0,999,25187,0,-0.00000359,0,4173718,0 FLTSATCOM 8 (USA 46),1 20253U 89077A   24028.79325118 -.00000359  00000-0  00000+0 0  9992,2 20253  12.6774 356.4205 0006260 318.8423 223.6371  1.00268198251871,1989-077A,20253,42165.738,1436.148,35813.998,35761.207,0
GENERATED VIA SPACETRACK.ORG API,18 SPCS,20253,FLTSATCOM 8 (USA 46),PAYLOAD,U,89077A,2024-01-28 19:02:16,901952,1.00268198,0.000626,12.6774,356.4205,318.8423,223.6371,0,999,25189,0,-0.00000359,0,4173840,0 FLTSATCOM 8 (USA 46),1 20253U 89077A   24028.79325118 -.00000359  00000-0  00000-0 0  9993,2 20253  12.6774 356.4205 0006260 318.8423 223.6371  1.00268198251893,1989-077A,20253,42165.738,1436.148,35813.998,35761.207,0
GENERATED VIA SPACETRACK.ORG API,18 SPCS,38699,TITAN 3C TRANSTAGE DEB,DEBRIS,U,68081Z,2024-01-28 18:48:52,395264,1.00862561,0.0100173,1.399,336.1019,343.5625,168.7165,0,999,4309,0,-0.00000251,0,4173840,0 TITAN 3C TRANSTAGE DEB,1 38699U 68081Z   24028.78393976 -.00000251  00000-0  00000-0 0  9995,2 38699   1.3990 336.1019 0100173 343.5625 168.7165  1.00862561 43091,1968-081Z,38699,41999.925,1427.685,36042.516,35201.064,0
GENERATED VIA SPACETRACK.ORG API,18 SPCS,41384,IRNSS 1F,PAYLOAD,U,16015A,2024-01-28 18:35:35,405376,1.00271969,0.0021518,3.2484,123.3066,186.2013,129.27,0,999,2893,0,0.00000165,0,4173662,0 IRNSS 1F,1 41384U 16015A   24028.77471534  .00000165  00000-0  00000+0 0  9998,2 41384   3.2484 123.3066 0021518 186.2013 129.2700  1.00271969 28930,2016-015A,41384,42164.680,1436.094,35877.275,35695.815,0
GENERATED VIA SPACETRACK.ORG API,18 SPCS,33436,ASTRA 1M,PAYLOAD,U,08057A,2024-01-28 18:31:49,841760,1.00272809,0.0000966,0.0363,86.0028,163.2118,175.4025,0,999,5575,0,0.00000127,0,4173624,0 ASTRA 1M,1 33436U 08057A   24028.77210465  .00000127  00000-0  00000+0 0  9996,2 33436   0.0363  86.0028 0000966 163.2118 175.4025  1.00272809 55755,2008-057A,33436,42164.445,1436.082,35790.383,35782.237,0
GENERATED VIA SPACETRACK.ORG API,18 SPCS,44457,COSMOS 2539,PAYLOAD,U,19048A,2024-01-28 18:29:42,24192,1.00276161,0.0000309,0.0226,118.6596,240.2472,58.0211,0,999,1650,0,0.00000089,0,4173735,0 COSMOS 2539,1 44457U 19048A   24028.77062528  .00000089  00000-0  00000+0 0  9995,2 44457   0.0226 118.6596 0000309 240.2472  58.0211  1.00276161 16508,2019-048A,44457,42163.505,1436.034,35786.673,35784.067,0
GENERATED VIA SPACETRACK.ORG API,18 SPCS,42749,ECHOSTAR 21,PAYLOAD,U,17032A,2024-01-28 18:29:11,949216,1.00273558,0.0002809,2.7878,316.9068,339.8165,118.3453,0,999,2439,0,0.00000075,0,4173659,0 ECHOSTAR 21,1 42749U 17032A   24028.77027719  .00000075  00000-0  00000+0 0  9996,2 42749   2.7878 316.9068 0002809 339.8165 118.3453  1.00273558 24391,2017-032A,42749,42164.235,1436.072,35797.944,35774.256,0
GENERATED VIA SPACETRACK.ORG API,18 SPCS,42749,ECHOSTAR 21,PAYLOAD,U,17032A,2024-01-28 18:29:11,949216,1.00273558,0.0002809,2.7878,316.9068,339.8165,118.3453,0,999,2438,0,0.00000075,0,4173840,0 ECHOSTAR 21,1 42749U 17032A   24028.77027719  .00000075  00000-0  00000-0 0  9997,2 42749   2.7878 316.9068 0002809 339.8165 118.3453  1.00273558 24380,2017-032A,42749,42164.235,1436.072,35797.944,35774.256,0
GENERATED VIA SPACETRACK.ORG API,18 SPCS,42915,TDRS 13,PAYLOAD,U,17047A,2024-01-28 18:22:56,9856,1.00272526,0.0012192,3.7606,341.7895,110.5241,299.3932,0,999,2362,0,-0.0000009,0,4173840,0 TDRS 13,1 42915U 17047A   24028.76592604 -.00000090  00000-0  00000-0 0  9995,2 42915   3.7606 341.7895 0012192 110.5241 299.3932  1.00272526 23626,2017-047A,42915,42164.524,1436.086,35837.796,35734.982,0
GENERATED VIA SPACETRACK.ORG API,18 SPCS,43162,SBIRS GEO 3 (USA 282),PAYLOAD,U,18009A,2024-01-28 17:40:34,667904,1.00272701,0.0002006,2.5372,330.6812,336.5805,285.9524,0,999,2211,0,0.00000138,0,4173611,0 SBIRS GEO 3 (USA 282),1 43162U 18009A   24028.73651236  .00000138  00000-0  00000+0 0  9994,2 43162   2.5372 330.6812 0002006 336.5805 285.9524  1.00272701 22119,2018-009A,43162,42164.475,1436.084,35794.798,35777.882,0
GENERATED VIA SPACETRACK.ORG API,18 SPCS,43162,SBIRS GEO 3 (USA 282),PAYLOAD,U,18009A,2024-01-28 17:40:34,667904,1.00272701,0.0002006,2.5372,330.6812,336.5805,285.9524,0,999,2211,0,0.00000138,0,4173840,0 SBIRS GEO 3 (USA 282),1 43162U 18009A   24028.73651236  .00000138  00000-0  00000-0 0  9995,2 43162   2.5372 330.6812 0002006 336.5805 285.9524  1.00272701 22119,2018-009A,43162,42164.475,1436.084,35794.798,35777.882,0
GENERATED VIA SPACETRACK.ORG API,18 SPCS,44479,AMOS 17,PAYLOAD,U,19050A,2024-01-28 17:34:42,445344,1.00273189,0.0001886,0.0193,66.5492,259.4684,82.1226,0,999,1645,0,0.00000117,0,4173801,0 AMOS 17,1 44479U 19050A   24028.73243571  .00000117  00000-0  00000+0 0  9999,2 44479   0.0193  66.5492 0001886 259.4684  82.1226  1.00273189 16454,2019-050A,44479,42164.338,1436.077,35794.156,35778.251,0
